{
    "links": {
        "self": "http://www.neowsapp.com/rest/v1/neo/3836746?api_key=iIulBulltgU6a56xZRHN4H3l9WmuAYTsLGpBGhQ2"
    },
    "id": "3836746",
    "neo_reference_id": "3836746",
    "name": "(2018 XK1)",
    "designation": "2018 XK1",
    "nasa_jpl_url": "http://ssd.jpl.nasa.gov/sbdb.cgi?sstr=3836746",
    "absolute_magnitude_h": 24.3,
    "estimated_diameter": {
        "kilometers": {
            "estimated_diameter_min": 0.0366906138,
            "estimated_diameter_max": 0.0820427065
        },
        "meters": {
            "estimated_diameter_min": 36.6906137531,
            "estimated_diameter_max": 82.0427064882
        },
        "miles": {
            "estimated_diameter_min": 0.0227984834,
            "estimated_diameter_max": 0.0509789586
        },
        "feet": {
            "estimated_diameter_min": 120.3760332259,
            "estimated_diameter_max": 269.1689931548
        }
    },
    "is_potentially_hazardous_asteroid": false,
    "close_approach_data": [
        {
            "close_approach_date": "2018-12-10",
            "close_approach_date_full": "2018-Dec-10 09:35",
            "epoch_date_close_approach": 1544434500000,
            "relative_velocity": {
                "kilometers_per_second": "15.9239382535",
                "kilometers_per_hour": "57326.1777126864",
                "miles_per_hour": "35620.2574793078"
            },
            "miss_distance": {
                "astronomical": "0.0687398533",
                "lunar": "26.7398029337",
                "kilometers": "10283335.637792471",
                "miles": "6389768.4678232598"
            },
            "orbiting_body": "Earth"
        }
    ],
    "orbital_data": {
        "orbit_id": "3",
        "orbit_determination_date": "2018-12-30 07:11:22",
        "first_observation_date": "2018-12-09",
        "last_observation_date": "2018-12-18",
        "data_arc_in_days": 9,
        "observations_used": 40,
        "orbit_uncertainty": "8",
        "minimum_orbit_intersection": ".065644",
        "jupiter_tisserand_invariant": "4.319",
        "epoch_osculation": "2458462.5",
        "eccentricity": ".3308314108487078",
        "semi_major_axis": "1.522981431481778",
        "inclination": "27.95439045822386",
        "ascending_node_longitude": "260.6295109552991",
        "orbital_period": "686.4996804274421",
        "perihelion_distance": "1.019131335808277",
        "perihelion_argument": "150.6734551112731",
        "aphelion_distance": "2.02683152715528",
        "perihelion_time": "2458437.369539587350",
        "mean_anomaly": "13.17839761108264",
        "mean_motion": ".5243993701145639",
        "equinox": "J2000",
        "orbit_class": {
            "orbit_class_type": "AMO",
            "orbit_class_description": "Near-Earth asteroid orbits similar to that of 1221 Amor",
            "orbit_class_range": "1.017 AU < q (perihelion) < 1.3 AU"
        }
    },
    "is_sentry_object": false
}